UNKNOWN                 
1 87884U          26094.22502368  .00000723  00000+0  41772-3 0  9999
2 87884  98.7330 199.1250 0154859 111.7512 250.0219 14.06073326634176
UNKNOWN                 
1 87934U          26086.66057383  .00000092  00000+0  82850-4 0  9998
2 87934  82.9367 222.1462 0031922 104.6301 272.3687 13.73127491618715
UNKNOWN                 
1 87991U          26095.42780912 -.00002550  00000+0 -51455-2 0  9994
2 87991  28.6184 142.2520 0892777  93.6627 276.6298 12.35657420537060
UNKNOWN                 
1 88780U 25241B   26077.87414291  .00007938  00000+0  35116-3 0  9998
2 88780  51.6342  29.1833 0004488 186.7062 173.3856 15.22548355  1143
UNKNOWN                 
1 89005U          26091.97618315  .00002463  00000+0  55699-3 0  9991
2 89005  97.8428 277.9346 0190322  52.3824 309.4475 14.46425672550026
UNKNOWN                 
1 89029U          26094.53102666  .00009344  00000+0  83387-3 0  9999
2 89029  98.0426   1.7246 0021141 313.6789  46.2679 14.96018007667936
UNKNOWN                 
1 89101U          26091.65486117  .00000375  00000+0  12472-2 0  9997
2 89101 100.4750  29.9210 0146273 223.0426 135.9164 13.04042441569173
UNKNOWN                 
1 89132U          26087.56537018  .00001441  00000+0  19457-2 0  9998
2 89132  63.4178 287.3170 2924305 319.7281  21.9439  8.88041995334503
UNKNOWN                 
1 89146U          26095.26184345  .00006256  00000+0  11233-2 0  9993
2 89146  98.2557  29.1175 0093049  60.1065 300.9341 14.64242553645487
UNKNOWN                 
1 89161U          26079.34553192  .01120648  57617-3  31768-2 0  9999
2 89161  97.6294 106.9899 0009475 106.8536 253.3777 15.93413522563766
UNKNOWN                 
1 89172U          26094.02362862  .00016244  00000+0  25546-2 0  9997
2 89172  82.0604 116.2928 0278446 294.7340  62.5108 14.49691267618149
UNKNOWN                 
1 89183U          26093.71509488  .00000681  00000+0  63646-3 0  9993
2 89183  99.2170   7.2425 0129158 218.4976 140.6911 13.81734135622437
